61P/Shajn-Schaldach,e,5.9988,162.9872,221.8868,3.685003,0.1393309,0.42382323,248.0350,08/12.0/2020,2000,g  6.0,10.0
# From MPC109147
62P/Tsuchinshan,e,5.2657,74.8420,42.1238,3.322141,0.1627710,0.64509061,160.8275,08/12.0/2020,2000,g  8.0,10.0
# From MPC 84320
63P/Wild,e,19.7353,358.0176,169.1437,5.605007,0.0742745,0.64898704,199.4086,08/12.0/2020,2000,g 10.5,6.0
# From MPC111774
64P/Swift-Gehrels,e,8.9505,300.0030,97.0896,4.454790,0.1048246,0.68762583,67.8271,08/12.0/2020,2000,g  9.5,12.0
# From MPC104795
65P/Gunn,e,9.1825,62.0238,213.8059,3.884361,0.1287433,0.24982901,132.5007,08/12.0/2020,2000,g  5.0,6.0
# From MPC109147
66P/du Toit,e,18.6592,21.8654,257.3099,6.063332,0.0660142,0.78694654,53.8530,08/12.0/2020,2000,g  9.0,4.0
# From MPC 89011
67P/Churyumov-Gerasimenko,e,3.8770,36.6075,21.9480,3.457867,0.1532822,0.65113366,291.5424,08/12.0/2020,2000,g 11.0,4.0
# From MPC 75716
68P/Klemola,e,11.1103,175.0777,153.0812,4.950151,0.0894904,0.63757460,24.7823,08/12.0/2020,2000,g 10.0,4.0
# From MPC114607
69P/Taylor,e,22.0330,104.8310,343.4999,3.889074,0.1285093,0.41304445,65.8934,08/12.0/2020,2000,g  9.5,12.0
# From MPC 92276
70P/Kojima,e,6.5982,119.2671,1.8553,3.675589,0.1398665,0.45340762,297.3079,08/12.0/2020,2000,g 11.0,6.0
# From MPC107051
71P/Clark,e,9.4406,59.4346,209.0216,3.138198,0.1772897,0.49417234,201.8173,08/12.0/2020,2000,g  9.8,6.0
# From MPC 89011
72P/Denning-Fujikawa,e,10.9327,26.6895,346.6725,4.311602,0.1100895,0.81810182,245.6999,08/12.0/2020,2000,g 17.5,10.0
# From MPC106348
73P/Schwassmann-Wachmann,e,11.2332,69.6473,199.4454,3.093063,0.1811845,0.68568994,225.2969,08/12.0/2020,2000,g 11.5,6.0
# From MPC106348
73P-T/Schwassmann-Wachmann,e,11.2353,69.6499,199.4269,3.094624,0.1810474,0.68589296,225.1275,08/12.0/2020,2000,g 11.5,6.0
# From MPC102956
74P/Smirnova-Chernykh,e,6.5686,76.7858,92.5331,4.220702,0.1136651,0.15388446,101.6799,08/12.0/2020,2000,g  5.0,6.0
# From MPC118097
76P/West-Kohoutek-Ikemura,e,30.4568,84.1229,0.0014,3.473932,0.1522202,0.53811457,44.2796,08/12.0/2020,2000,g  8.0,12.0
# From MPC100283
77P/Longmore,e,24.3238,14.7959,196.8671,3.620610,0.1430644,0.35236575,222.0573,08/12.0/2020,2000,g  7.0,8.0
# From MPEC 2016-U66
78P/Gehrels,e,6.2491,210.5318,192.6500,3.739746,0.1362828,0.46176772,67.7800,08/12.0/2020,2000,g  9.0,4.0
# From MPC 94675
79P/du Toit-Hartley,e,3.1480,280.5255,281.8225,2.942797,0.1952377,0.61896910,136.4468,08/12.0/2020,2000,g 16.0,4.0
# From MPEC 2014-P41
80P/Peters-Hartley,e,29.9418,259.8218,339.2544,4.024243,0.1220893,0.59906047,256.3969,08/12.0/2020,2000,g  9.0,4.0
# From MPC105241
81P/Wild,e,3.2369,136.1019,41.7123,3.450561,0.1537692,0.53713546,228.3966,08/12.0/2020,2000,g  7.0,6.0
# From MPEC 2020-L06
82P/Gehrels,e,1.1284,239.3118,226.8478,4.136691,0.1171452,0.12174025,91.1191,08/12.0/2020,2000,g  5.0,8.0
# From MPC105241
84P/Giclas,e,7.5523,108.1746,281.5643,3.547886,0.1474856,0.51552860,10.2035,08/12.0/2020,2000,g  9.5,8.0
# From MPC109147
86P/Wild,e,15.4747,72.3721,179.3316,3.603735,0.1440704,0.37260661,281.5721,08/12.0/2020,2000,g 11.0,6.0
# From MPC105241
87P/Bus,e,2.6023,181.8613,24.9385,3.437845,0.1546232,0.38919277,14.6473,08/12.0/2020,2000,g  7.2,10.0
# From MPEC 2019-JE2
88P/Howell,e,4.3837,56.6853,235.9148,3.105828,0.1800686,0.56434205,351.7848,08/12.0/2020,2000,g 11.0,6.0
# From MPC100283
89P/Russell,e,12.0703,41.4080,250.2838,3.753909,0.1355122,0.40869939,180.9321,08/12.0/2020,2000,g 11.5,6.0
# From MPC107051
90P/Gehrels,e,9.6420,13.2119,29.1019,6.054779,0.0661541,0.50968605,76.0845,08/12.0/2020,2000,g  8.5,6.0
# From MPC105241
91P/Russell,e,14.0919,247.8276,354.7973,3.890089,0.1284591,0.33055521,348.5196,08/12.0/2020,2000,g  7.5,6.0
# From MPEC 2014-J58
92P/Sanguin,e,19.4819,181.3837,163.7196,5.345301,0.0797528,0.66057232,158.6271,08/12.0/2020,2000,g 12.0,6.0
# From NK 2707
93P/Lovas,e,12.2021,339.6328,74.8511,4.384271,0.1073638,0.61215515,135.3049,08/12.0/2020,2000,g  9.0,4.0
# From MPEC 2013-O31
94P/Russell,e,6.1878,70.8598,92.5001,3.507143,0.1500631,0.36469942,207.9962,08/12.0/2020,2000,g  9.0,4.0
# From MPC 75717
95P/Chiron,e,6.9375,209.2499,339.7960,13.68926,0.0194596,0.37841794,174.2764,08/12.0/2020,2000,g  6.5,2.0
# From MPEC 2017-T14
96P/Machholz,e,58.0015,94.1475,14.6753,3.027377,0.1871132,0.96157334,191.0317,08/12.0/2020,2000,g  9.0,4.0
# From MPC 77020
97P/Metcalf-Brewington,e,17.8980,184.2311,229.4764,4.781153,0.0942768,0.46146663,308.0256,08/12.0/2020,2000,g  5.5,6.0
# From MPEC 2013-H38
98P/Takamizawa,e,10.5614,114.7118,157.9228,3.798448,0.1331358,0.56218353,340.5708,08/12.0/2020,2000,g  9.0,8.0
# From MPEC 2020-L06
99P/Kowal,e,4.3381,28.1199,174.9364,6.113012,0.0652110,0.23023923,320.3072,08/12.0/2020,2000,g  4.5,6.0
# From MPEC 2013-O31
100P/Hartley,e,25.5705,37.7143,182.0034,3.431715,0.1550377,0.41256686,246.9969,08/12.0/2020,2000,g  9.0,4.0
# From MPC115887
101P/Chernykh,e,5.0529,116.2307,277.6951,5.799641,0.0705671,0.59568974,14.9936,08/12.0/2020,2000,g 12.0,4.8
# From MPC 86232
102P/Shoemaker,e,25.8795,339.3699,20.5292,3.815898,0.1322236,0.45756581,338.3998,08/12.0/2020,2000,g  6.5,8.0
# From MPEC 2018-HA5
103P/Hartley,e,13.5946,219.7275,181.2929,3.476566,0.1520472,0.69294869,184.0322,08/12.0/2020,2000,g  8.5,8.0
# From MPC100283
104P/Kowal,e,5.7285,208.2026,226.4225,3.207336,0.1715882,0.66770301,271.4415,08/12.0/2020,2000,g 16.0,4.0
# From MPC109147
105P/Singer Brewster,e,9.1729,192.4190,46.4726,3.466586,0.1527042,0.40985121,111.9255,08/12.0/2020,2000,g 11.5,6.0
# From MPC 92276
106P/Schuster,e,19.5490,48.9823,353.5842,3.765364,0.1348943,0.59428749,309.8674,08/12.0/2020,2000,g 14.0,4.8
# From MPEC 2015-M77
107P/Wilson-Harrington,e,2.7983,266.8125,95.3756,2.625755,0.2316449,0.63128528,187.9260,08/12.0/2020,2000,g  9.0,4.0
# From MPC 89313
108P/Ciffreo,e,11.4485,50.4429,354.2610,3.743696,0.1360671,0.55691192,306.4152,08/12.0/2020,2000,g  8.0,12.0
# From  105, 420
109P/Swift-Tuttle,e,113.9496,139.0688,152.8803,26.11439,0.0073856,0.96310303,74.7233,08/12.0/2020,2000,g  4.0,6.0
# From MPC 92276
110P/Hartley,e,11.7073,287.5335,167.4420,3.600784,0.1442476,0.31787863,297.6345,08/12.0/2020,2000,g  1.0,12.0
# From MPC 75718
111P/Helin-Roman-Crockett,e,4.2274,89.7642,1.1170,4.145030,0.1167918,0.10556625,323.9683,08/12.0/2020,2000,g  5.0,8.0
# From MPC118097
112P/Urata-Niijima,e,24.1907,31.8454,21.4976,3.526184,0.1488492,0.58977492,27.6917,08/12.0/2020,2000,g 14.0,6.0
# From MPEC 2015-E14
113P/Spitaler,e,5.2994,306.7339,115.4512,3.702390,0.1383505,0.42621162,269.4111,08/12.0/2020,2000,g 13.5,4.0
# From MPEC 2019-TG9
114P/Wiseman-Skiff,e,18.2722,271.0586,172.7985,3.546700,0.1475595,0.55472930,31.1259,08/12.0/2020,2000,g 11.5,6.0
# From MPC105241
115P/Maury,e,11.6746,176.0157,121.0134,4.276669,0.1114412,0.51903794,1.4776,08/12.0/2020,2000,g 10.5,6.0
# From MPC106348
116P/Wild,e,3.6039,20.9951,173.3834,3.488641,0.1512584,0.37083808,253.5090,08/12.0/2020,2000,g  2.5,10.0
# From MPEC 2015-S97
117P/Helin-Roman-Alu,e,8.7014,58.8536,222.7435,4.086617,0.1193049,0.25577800,277.2245,08/12.0/2020,2000,g  9.0,4.0
# From MPC 95735
118P/Shoemaker-Levy,e,9.6303,143.0344,312.0282,3.394204,0.1576149,0.45737737,230.2063,08/12.0/2020,2000,g 12.0,4.0
# From MPC 84628
119P/Parker-Hartley,e,7.4990,104.9231,321.2683,3.829034,0.1315438,0.39815833,265.0285,08/12.0/2020,2000,g  3.5,8.0
# From MPC 80901
120P/Mueller,e,8.4874,358.6762,36.4771,3.964534,0.1248578,0.37488268,326.5582,08/12.0/2020,2000,g 12.0,4.0
# From MPC100283
121P/Shoemaker-Holt,e,20.1636,94.1385,11.2461,4.586613,0.1003381,0.18502030,254.7225,08/12.0/2020,2000,g  6.5,8.0
# From MPC 75718
122P/de Vico,e,84.6868,79.5192,13.0190,17.63200,0.0133123,0.96227616,121.0966,08/12.0/2020,2000,g  7.5,5.2
# From MPC114608
123P/West-Hartley,e,15.3338,46.4369,103.3243,3.865811,0.1296711,0.44866577,71.7609,08/12.0/2020,2000,g  4.0,10.0
# From MPEC 2020-N31
124P/Mrkos,e,31.5130,0.3709,183.8598,3.317748,0.1630944,0.50341477,17.4680,08/12.0/2020,2000,g 13.5,2.8
# From MPEC 2015-M77
125P/Spacewatch,e,9.9870,153.1598,87.2235,3.125130,0.1784029,0.51306095,127.5954,08/12.0/2020,2000,g  9.0,4.0
# From MPC 66205
126P/IRAS,e,45.8537,357.8493,356.5008,5.641974,0.0735457,0.69604724,282.2250,08/12.0/2020,2000,g  9.0,4.0
# From MPC 84321
127P/Holt-Olmstead,e,14.2983,13.6474,6.5341,3.449664,0.1538292,0.35983236,247.8061,08/12.0/2020,2000,g 11.0,6.0
# From MPC 89014
128P/Shoemaker-Holt,e,4.3661,214.2929,210.3712,4.493820,0.1034619,0.32041148,135.6003,08/12.0/2020,2000,g  8.5,4.0
# From MPEC 2019-TG9
129P/Shoemaker-Levy,e,3.4429,184.8904,308.1276,4.281363,0.1112579,0.08389514,265.9288,08/12.0/2020,2000,g 11.0,4.0
# From MPC 78188
130P/McNaught-Hughes,e,6.0638,70.2447,245.9638,3.383829,0.1583403,0.46131865,147.6915,08/12.0/2020,2000,g 10.0,6.0
# From MPC102101
131P/Mueller,e,7.3535,214.1734,179.0385,3.681393,0.1395358,0.34363144,78.9557,08/12.0/2020,2000,g 11.0,4.0
# From MPEC 2020-HN5
132P/Helin-Roman-Alu,e,5.3782,174.1104,216.3842,3.884256,0.1287486,0.56539924,301.0144,08/12.0/2020,2000,g 11.0,6.0
# From MPC 94676
133P/Elst-Pizarro,e,1.3891,160.1228,131.7209,3.163758,0.1751456,0.15717561,120.9274,08/12.0/2020,2000,g 15.4,2.0
# From MPC 89012
134P/Kowal-Vavrova,e,4.3436,202.0814,18.8741,6.257851,0.0629602,0.58672015,143.2525,08/12.0/2020,2000,g 11.5,4.0
# From MPEC 2015-E14
135P/Shoemaker-Levy,e,6.0613,213.0453,22.2544,3.804123,0.1328380,0.29551124,279.8926,08/12.0/2020,2000,g  9.0,4.0
# From MPC101100
136P/Mueller,e,9.4239,137.4453,224.8908,4.195179,0.1147039,0.29224194,175.9049,08/12.0/2020,2000,g 11.0,4.0
# From MPEC 2020-HN5
137P/Shoemaker-Levy,e,4.8534,233.0623,141.0084,4.520411,0.1025504,0.57324634,62.3013,08/12.0/2020,2000,g 11.0,4.0
# From MPEC 2016-U66
138P/Shoemaker-Levy,e,10.0910,309.3317,95.5733,3.623123,0.1429156,0.53025230,66.7776,08/12.0/2020,2000,g 15.0,6.0
# From MPEC 2020-HN5
139P/Vaisala-Oterma,e,2.3334,242.1945,165.7784,4.524519,0.1024107,0.24637120,100.0085,08/12.0/2020,2000,g  9.5,4.0
# From MPEC 2015-E14
